SWARM A                 
1 39452U 13067B   26162.99321930  .00010199  00000+0  17599-3 0  9996
2 39452  87.3336  58.1711 0002992  93.5527 266.6076 15.50849115705443
SWARM C                 
1 39453U 13067C   26162.92857404  .00009545  00000+0  16467-3 0  9996
2 39453  87.3335  56.7760 0002985  94.2985 265.8617 15.50848959705390
BRITE-CA1 (TORONTO)     
1 40020U 14033L   26162.94194070  .00000565  00000+0  92884-4 0  9998
2 40020  97.9732 291.9667 0077330 294.1123  65.2011 14.72669387641444
OCO 2                   
1 40059U 14035A   26162.93658776  .00000332  00000+0  83710-4 0  9999
2 40059  98.2018 104.3096 0001486  86.2404 273.8964 14.57106984635282
BRITE-PL2 (HEWELIUSZ)   
1 40119U 14049B   26162.81639090  .00001189  00000+0  11526-3 0  9992
2 40119  97.9092 274.7753 0015130 124.3562 235.9092 14.94577098640645
MMS 1                   
1 40482U 15011A   26163.00003472 -.00000104  00000+0  00000+0 0  9994
2 40482  72.1109 348.8556 8320756 167.3542 129.2916  0.28375885  1386
MMS 2                   
1 40483U 15011B   26163.00003472 -.00000104  00000+0  00000+0 0  9995
2 40483  72.1110 348.8579 8321540 167.3598 129.2800  0.28375905  1382
MMS 3                   
1 40484U 15011C   26163.00003472 -.00000104  00000+0  00000+0 0  9996
2 40484  72.1169 348.8615 8320813 167.3531 129.2836  0.28376392  1387
MMS 4                   
1 40485U 15011D   26163.00003472 -.00000104  00000+0  00000+0 0  9997
2 40485  72.1130 348.8572 8320420 167.3609 129.2721  0.28376383  1381
ASTROSAT                
1 40930U 15052A   26162.91139613  .00001444  00000+0  94062-4 0  9996
2 40930   5.9951 193.3352 0008415 317.2819  42.6655 14.82498586579040
DAMPE                   
1 41173U 15078A   26163.00431396  .00001050  00000+0  37828-4 0  9998
2 41173  97.4561 168.4456 0013793  93.2081 267.0738 15.30771467583752
PISAT                   
1 41784U 16059B   26162.96720999  .00000767  00000+0  13830-3 0  9990
2 41784  97.8178 163.6443 0027986 219.9481 139.9666 14.68974744518973
HXMT (HUIYAN)           
1 42758U 17034A   26162.60889608  .00004085  00000+0  20409-3 0  9997
2 42758  43.0133 214.1024 0030214 110.4509 249.9587 15.18442350496811
FLYING LAPTOP           
1 42831U 17042G   26162.98616994  .00002592  00000+0  20619-3 0  9999
2 42831  97.4661 318.7203 0019336 138.5659 221.7036 15.01110967485678
ZHANGHENG 1-01 (CSES-1) 
1 43194U 18015C   26162.94098934  .00006816  00000+0  31181-3 0  9996
2 43194  97.6861 328.4952 0017071 286.1797  73.7559 15.20744821463844
SALSAT                  
1 46495U 20068K   26162.97803982  .00007008  00000+0  24606-3 0  9992
2 46495  97.8848 165.7257 0008496 329.8396  30.2352 15.29724756314566
IXPE                    
1 49954U 21121A   26163.00003472  .00009916  00000+0  53382-3 0  9990
2 49954   0.2319 356.3842 0006872   0.0974 114.7812 15.10202349  5693
SMILE                   
1 69123U 26109A   26144.65318427 -.00001976  00000+0 -42379-3 0  9994
2 69123  70.0007 229.2745 0009123 259.5159 100.4951 14.57062785   802
