OBJECT_NAME,OBJECT_ID,EPOCH,MEAN_MOTION,ECCENTRICITY,INCLINATION,RA_OF_ASC_NODE,ARG_OF_PERICENTER,MEAN_ANOMALY,EPHEMERIS_TYPE,CLASSIFICATION_TYPE,NORAD_CAT_ID,ELEMENT_SET_NO,REV_AT_EPOCH,BSTAR,MEAN_MOTION_DOT,MEAN_MOTION_DDOT
SWARM A,2013-067B,2026-06-11T23:50:14.147520,15.50849115,.00029926,87.3336,58.1711,93.5527,266.6076,0,U,39452,999,70544,.17598682E-3,.10199E-3,0
SWARM C,2013-067C,2026-06-11T22:17:08.797056,15.50848959,.00029854,87.3335,56.7760,94.2985,265.8617,0,U,39453,999,70539,.16466547E-3,.9545E-4,0
BRITE-CA1 (TORONTO),2014-033L,2026-06-11T22:36:23.676480,14.72669387,.00773303,97.9732,291.9667,294.1123,65.2011,0,U,40020,999,64144,.92883937E-4,.565E-5,0
OCO 2,2014-035A,2026-06-11T22:28:41.182464,14.57106984,.00014869,98.2018,104.3096,86.2404,273.8964,0,U,40059,999,63528,.8371027E-4,.332E-5,0
BRITE-PL2 (HEWELIUSZ),2014-049B,2026-06-11T19:35:36.173760,14.94577098,.00151308,97.9092,274.7753,124.3562,235.9092,0,U,40119,999,64064,.11525525E-3,.1189E-4,0
MMS 1,2015-011A,2026-06-12T00:00:02.999808,0.28375885,.83207566,72.1109,348.8556,167.3542,129.2916,0,U,40482,999,138,0,-.104E-5,0
MMS 2,2015-011B,2026-06-12T00:00:02.999808,0.28375905,.83215402,72.1110,348.8579,167.3598,129.2800,0,U,40483,999,138,0,-.104E-5,0
MMS 3,2015-011C,2026-06-12T00:00:02.999808,0.28376392,.83208137,72.1169,348.8615,167.3531,129.2836,0,U,40484,999,138,0,-.104E-5,0
MMS 4,2015-011D,2026-06-12T00:00:02.999808,0.28376383,.83204209,72.1130,348.8572,167.3609,129.2721,0,U,40485,999,138,0,-.104E-5,0
ASTROSAT,2015-052A,2026-06-11T21:52:24.625632,14.82498586,.00084155,5.9951,193.3352,317.2819,42.6655,0,U,40930,999,57904,.9406238E-4,.1444E-4,0
DAMPE,2015-078A,2026-06-12T00:06:12.726144,15.30771467,.00137937,97.4561,168.4456,93.2081,267.0738,0,U,41173,999,58375,.37827533E-4,.105E-4,0
PISAT,2016-059B,2026-06-11T23:12:46.943136,14.68974744,.00279865,97.8178,163.6443,219.9481,139.9666,0,U,41784,999,51897,.13830027E-3,.767E-5,0
HXMT (HUIYAN),2017-034A,2026-06-11T14:36:48.621312,15.18442350,.00302145,43.0133,214.1024,110.4509,249.9587,0,U,42758,999,49681,.20409076E-3,.4085E-4,0
FLYING LAPTOP,2017-042G,2026-06-11T23:40:05.082816,15.01110967,.00193363,97.4661,318.7203,138.5659,221.7036,0,U,42831,999,48567,.20619158E-3,.2592E-4,0
ZHANGHENG 1-01 (CSES-1),2018-015C,2026-06-11T22:35:01.478976,15.20744821,.00170714,97.6861,328.4952,286.1797,73.7559,0,U,43194,999,46384,.31181139E-3,.6816E-4,0
SALSAT,2020-068K,2026-06-11T23:28:22.640448,15.29724756,.00084963,97.8848,165.7257,329.8396,30.2352,0,U,46495,999,31456,.24606051E-3,.7008E-4,0
IXPE,2021-121A,2026-06-12T00:00:02.999808,15.10202349,.0006872,0.2319,356.3842,0.0974,114.7812,0,U,49954,999,569,.53382214E-3,.9916E-4,0
SMILE,2026-109A,2026-05-24T15:40:35.120928,14.57062785,.00091232,70.0007,229.2745,259.5159,100.4951,0,U,69123,999,80,-.42378883E-3,-.1976E-4,0
